[{"OBJECT_NAME":"STARLINK-5327","OBJECT_ID":"2023-010Y","EPOCH":"2026-03-09T22:37:04.624032","MEAN_MOTION":14.98328369,"ECCENTRICITY":0.00029345,"INCLINATION":70.0014,"RA_OF_ASC_NODE":23.9539,"ARG_OF_PERICENTER":269.241,"MEAN_ANOMALY":90.8413,"EPHEMERIS_TYPE":0,"CLASSIFICATION_TYPE":"U","NORAD_CAT_ID":55291,"ELEMENT_SET_NO":999,"REV_AT_EPOCH":17330,"BSTAR":4.0965856e-5,"MEAN_MOTION_DOT":3.96e-6,"MEAN_MOTION_DDOT":0},{"OBJECT_NAME":"CZ-4B DEB","OBJECT_ID":"1999-057BZ","EPOCH":"2026-03-09T10:47:31.286688","MEAN_MOTION":14.9004764,"ECCENTRICITY":0.00449145,"INCLINATION":98.5631,"RA_OF_ASC_NODE":129.7133,"ARG_OF_PERICENTER":286.2462,"MEAN_ANOMALY":73.3815,"EPHEMERIS_TYPE":0,"CLASSIFICATION_TYPE":"U","NORAD_CAT_ID":26187,"ELEMENT_SET_NO":999,"REV_AT_EPOCH":39955,"BSTAR":0.00034061798,"MEAN_MOTION_DOT":3.283e-5,"MEAN_MOTION_DDOT":0}]
